STARLINK-2022           
1 47643U 21012Z   23219.30900481  .00024019  00000+0  16249-2 0  9991
2 47643  53.0542 335.6031 0000912  99.7555 260.3537 15.06422136137252
